{"fetched_at":"2026-07-08T17:59:50.271Z","source":"https://celestrak.org/NORAD/elements/gp.php?NAME=ICEYE&FORMAT=JSON","constellation":"iceye","records":[{"OBJECT_NAME":"ICEYE-X2","OBJECT_ID":"2018-099AU","EPOCH":"2026-07-08T12:01:47.468640","CLASSIFICATION_TYPE":"U","MEAN_MOTION":15.17989188,"ECCENTRICITY":0.0009131,"INCLINATION":97.4344,"RA_OF_ASC_NODE":242.9694,"ARG_OF_PERICENTER":220.5086,"MEAN_ANOMALY":139.547,"EPHEMERIS_TYPE":0,"NORAD_CAT_ID":43800,"ELEMENT_SET_NO":999,"REV_AT_EPOCH":41605,"BSTAR":0.00026916,"MEAN_MOTION_DOT":0.00005409,"MEAN_MOTION_DDOT":0},{"OBJECT_NAME":"ICEYE-X4","OBJECT_ID":"2019-038D","EPOCH":"2026-07-08T12:36:22.858848","CLASSIFICATION_TYPE":"U","MEAN_MOTION":15.29779678,"ECCENTRICITY":0.001221,"INCLINATION":97.8755,"RA_OF_ASC_NODE":223.6978,"ARG_OF_PERICENTER":222.4945,"MEAN_ANOMALY":137.5349,"EPHEMERIS_TYPE":0,"NORAD_CAT_ID":44390,"ELEMENT_SET_NO":999,"REV_AT_EPOCH":38506,"BSTAR":0.00025982,"MEAN_MOTION_DOT":0.00007426,"MEAN_MOTION_DDOT":0},{"OBJECT_NAME":"ICEYE-X7","OBJECT_ID":"2020-068L","EPOCH":"2026-07-08T12:04:56.376192","CLASSIFICATION_TYPE":"U","MEAN_MOTION":15.31999129,"ECCENTRICITY":0.0005435,"INCLINATION":97.7501,"RA_OF_ASC_NODE":157.0059,"ARG_OF_PERICENTER":242.8505,"MEAN_ANOMALY":117.2181,"EPHEMERIS_TYPE":0,"NORAD_CAT_ID":46496,"ELEMENT_SET_NO":999,"REV_AT_EPOCH":31805,"BSTAR":0.00024809,"MEAN_MOTION_DOT":0.00007584,"MEAN_MOTION_DDOT":0},{"OBJECT_NAME":"ICEYE-X6","OBJECT_ID":"2020-068M","EPOCH":"2026-07-08T11:21:00.023616","CLASSIFICATION_TYPE":"U","MEAN_MOTION":15.0463759,"ECCENTRICITY":0.0007785,"INCLINATION":98.0976,"RA_OF_ASC_NODE":184.1634,"ARG_OF_PERICENTER":29.3904,"MEAN_ANOMALY":330.7757,"EPHEMERIS_TYPE":0,"NORAD_CAT_ID":46497,"ELEMENT_SET_NO":999,"REV_AT_EPOCH":31643,"BSTAR":0.00019322,"MEAN_MOTION_DOT":0.00002649,"MEAN_MOTION_DDOT":0},{"OBJECT_NAME":"ICEYE-X21","OBJECT_ID":"2023-001AS","EPOCH":"2026-06-24T05:11:18.420288","CLASSIFICATION_TYPE":"U","MEAN_MOTION":16.24069885,"ECCENTRICITY":0.00123774,"INCLINATION":97.3001,"RA_OF_ASC_NODE":262.6152,"ARG_OF_PERICENTER":285.9702,"MEAN_ANOMALY":74.0225,"EPHEMERIS_TYPE":0,"NORAD_CAT_ID":55049,"ELEMENT_SET_NO":999,"REV_AT_EPOCH":19475,"BSTAR":0.000602142,"MEAN_MOTION_DOT":0.01585954,"MEAN_MOTION_DDOT":0.000002396838},{"OBJECT_NAME":"ICEYE-X25","OBJECT_ID":"2023-084AH","EPOCH":"2026-07-08T12:41:07.016352","CLASSIFICATION_TYPE":"U","MEAN_MOTION":15.62361694,"ECCENTRICITY":0.0003959,"INCLINATION":97.5903,"RA_OF_ASC_NODE":337.2805,"ARG_OF_PERICENTER":206.5023,"MEAN_ANOMALY":153.6033,"EPHEMERIS_TYPE":0,"NORAD_CAT_ID":56963,"ELEMENT_SET_NO":999,"REV_AT_EPOCH":17130,"BSTAR":0.00042389,"MEAN_MOTION_DOT":0.00037488,"MEAN_MOTION_DDOT":0},{"OBJECT_NAME":"ICEYE-X31","OBJECT_ID":"2023-174AJ","EPOCH":"2026-07-08T12:33:50.268672","CLASSIFICATION_TYPE":"U","MEAN_MOTION":15.35026681,"ECCENTRICITY":0.000203,"INCLINATION":97.3771,"RA_OF_ASC_NODE":265.2668,"ARG_OF_PERICENTER":207.1337,"MEAN_ANOMALY":152.98,"EPHEMERIS_TYPE":0,"NORAD_CAT_ID":58288,"ELEMENT_SET_NO":999,"REV_AT_EPOCH":14802,"BSTAR":0.00034811,"MEAN_MOTION_DOT":0.00011755,"MEAN_MOTION_DDOT":0},{"OBJECT_NAME":"ICEYE-X34","OBJECT_ID":"2023-174AQ","EPOCH":"2026-07-08T12:05:08.621664","CLASSIFICATION_TYPE":"U","MEAN_MOTION":15.69682389,"ECCENTRICITY":0.0001626,"INCLINATION":97.3862,"RA_OF_ASC_NODE":281.7911,"ARG_OF_PERICENTER":190.3914,"MEAN_ANOMALY":169.7315,"EPHEMERIS_TYPE":0,"NORAD_CAT_ID":58294,"ELEMENT_SET_NO":999,"REV_AT_EPOCH":14908,"BSTAR":0.0010896,"MEAN_MOTION_DOT":0.00130727,"MEAN_MOTION_DDOT":0},{"OBJECT_NAME":"ICEYE-X35","OBJECT_ID":"2023-174AY","EPOCH":"2026-07-08T11:56:42.328896","CLASSIFICATION_TYPE":"U","MEAN_MOTION":15.54632774,"ECCENTRICITY":0.0008367,"INCLINATION":97.3781,"RA_OF_ASC_NODE":274.688,"ARG_OF_PERICENTER":128.6739,"MEAN_ANOMALY":231.5264,"EPHEMERIS_TYPE":0,"NORAD_CAT_ID":58302,"ELEMENT_SET_NO":999,"REV_AT_EPOCH":14865,"BSTAR":0.00062018,"MEAN_MOTION_DOT":0.00041131,"MEAN_MOTION_DDOT":0},{"OBJECT_NAME":"ICEYE-X38","OBJECT_ID":"2024-043C","EPOCH":"2026-07-08T11:31:07.502880","CLASSIFICATION_TYPE":"U","MEAN_MOTION":15.13052519,"ECCENTRICITY":0.0002901,"INCLINATION":97.8426,"RA_OF_ASC_NODE":333.8179,"ARG_OF_PERICENTER":39.1621,"MEAN_ANOMALY":320.9818,"EPHEMERIS_TYPE":0,"NORAD_CAT_ID":59100,"ELEMENT_SET_NO":999,"REV_AT_EPOCH":11489,"BSTAR":0.00019865,"MEAN_MOTION_DOT":0.00003442,"MEAN_MOTION_DDOT":0},{"OBJECT_NAME":"ICEYE-X37","OBJECT_ID":"2024-043E","EPOCH":"2026-07-08T08:57:21.642624","CLASSIFICATION_TYPE":"U","MEAN_MOTION":15.06265529,"ECCENTRICITY":0.0013667,"INCLINATION":97.8338,"RA_OF_ASC_NODE":326.7114,"ARG_OF_PERICENTER":300.0051,"MEAN_ANOMALY":59.9818,"EPHEMERIS_TYPE":0,"NORAD_CAT_ID":59102,"ELEMENT_SET_NO":999,"REV_AT_EPOCH":12827,"BSTAR":0.00015187,"MEAN_MOTION_DOT":0.00002167,"MEAN_MOTION_DDOT":0},{"OBJECT_NAME":"ICEYE-X36","OBJECT_ID":"2024-043F","EPOCH":"2026-07-08T08:45:19.442304","CLASSIFICATION_TYPE":"U","MEAN_MOTION":15.072003,"ECCENTRICITY":0.0004692,"INCLINATION":97.839,"RA_OF_ASC_NODE":327.8179,"ARG_OF_PERICENTER":240.031,"MEAN_ANOMALY":120.0451,"EPHEMERIS_TYPE":0,"NORAD_CAT_ID":59103,"ELEMENT_SET_NO":999,"REV_AT_EPOCH":12833,"BSTAR":0.00013882,"MEAN_MOTION_DOT":0.00002024,"MEAN_MOTION_DDOT":0},{"OBJECT_NAME":"ICEYE-X43","OBJECT_ID":"2024-149BZ","EPOCH":"2026-07-07T18:42:02.816064","CLASSIFICATION_TYPE":"U","MEAN_MOTION":14.99768892,"ECCENTRICITY":0.0007094,"INCLINATION":97.6813,"RA_OF_ASC_NODE":265.4679,"ARG_OF_PERICENTER":19.1548,"MEAN_ANOMALY":340.9941,"EPHEMERIS_TYPE":0,"NORAD_CAT_ID":60539,"ELEMENT_SET_NO":999,"REV_AT_EPOCH":10320,"BSTAR":0.00016056,"MEAN_MOTION_DOT":0.00001926,"MEAN_MOTION_DDOT":0},{"OBJECT_NAME":"ICEYE-X39","OBJECT_ID":"2024-149CG","EPOCH":"2026-07-08T11:46:52.017312","CLASSIFICATION_TYPE":"U","MEAN_MOTION":15.00040308,"ECCENTRICITY":0.000698,"INCLINATION":97.6769,"RA_OF_ASC_NODE":266.2256,"ARG_OF_PERICENTER":64.373,"MEAN_ANOMALY":295.8214,"EPHEMERIS_TYPE":0,"NORAD_CAT_ID":60546,"ELEMENT_SET_NO":999,"REV_AT_EPOCH":10331,"BSTAR":0.00022501,"MEAN_MOTION_DOT":0.00002743,"MEAN_MOTION_DDOT":0},{"OBJECT_NAME":"ICEYE-X33","OBJECT_ID":"2024-149CJ","EPOCH":"2026-07-07T16:52:20.127072","CLASSIFICATION_TYPE":"U","MEAN_MOTION":15.00923697,"ECCENTRICITY":0.0001935,"INCLINATION":97.7335,"RA_OF_ASC_NODE":267.7382,"ARG_OF_PERICENTER":75.9542,"MEAN_ANOMALY":284.1897,"EPHEMERIS_TYPE":0,"NORAD_CAT_ID":60548,"ELEMENT_SET_NO":999,"REV_AT_EPOCH":10328,"BSTAR":0.00026424,"MEAN_MOTION_DOT":0.00003306,"MEAN_MOTION_DDOT":0}]}
