ICEYE-X2                
1 43800U 18099AU  26189.50124385  .00005409  00000+0  26916-3 0  9990
2 43800  97.4344 242.9694 0009131 220.5086 139.5470 15.17989188416053
ICEYE-X4                
1 44390U 19038D   26189.52526457  .00007426  00000+0  25982-3 0  9990
2 44390  97.8755 223.6978 0012210 222.4945 137.5349 15.29779678385069
ICEYE-X7                
1 46496U 20068L   26189.50343028  .00007584  00000+0  24809-3 0  9995
2 46496  97.7501 157.0059 0005435 242.8505 117.2181 15.31999129318057
ICEYE-X6                
1 46497U 20068M   26189.47291694  .00002649  00000+0  19322-3 0  9994
2 46497  98.0976 184.1634 0007785  29.3904 330.7757 15.04637590316431
ICEYE-X21               
1 55049U 23001AS  26175.21618542  .01585954  23968-5  60214-3 0  9995
2 55049  97.3001 262.6152 0012377 285.9702  74.0225 16.24069885194757
ICEYE-X25               
1 56963U 23084AH  26189.52855343  .00037488  00000+0  42389-3 0  9995
2 56963  97.5903 337.2805 0003959 206.5023 153.6033 15.62361694171302
ICEYE-X31               
1 58288U 23174AJ  26189.52349848  .00011755  00000+0  34811-3 0  9995
2 58288  97.3771 265.2668 0002030 207.1337 152.9800 15.35026681148027
ICEYE-X34               
1 58294U 23174AQ  26189.50357201  .00130727  00000+0  10896-2 0  9999
2 58294  97.3862 281.7911 0001626 190.3914 169.7315 15.69682389149087
ICEYE-X35               
1 58302U 23174AY  26189.49771214  .00041131  00000+0  62018-3 0  9995
2 58302  97.3781 274.6880 0008367 128.6739 231.5264 15.54632774148651
ICEYE-X38               
1 59100U 24043C   26189.47994795  .00003442  00000+0  19865-3 0  9992
2 59100  97.8426 333.8179 0002901  39.1621 320.9818 15.13052519114897
ICEYE-X37               
1 59102U 24043E   26189.37316716  .00002167  00000+0  15187-3 0  9990
2 59102  97.8338 326.7114 0013667 300.0051  59.9818 15.06265529128274
ICEYE-X36               
1 59103U 24043F   26189.36480836  .00002024  00000+0  13882-3 0  9997
2 59103  97.8390 327.8179 0004692 240.0310 120.0451 15.07200300128332
ICEYE-X43               
1 60539U 24149BZ  26188.77919926  .00001926  00000+0  16056-3 0  9996
2 60539  97.6813 265.4679 0007094  19.1548 340.9941 14.99768892103205
ICEYE-X39               
1 60546U 24149CG  26189.49087983  .00002743  00000+0  22501-3 0  9993
2 60546  97.6769 266.2256 0006980  64.3730 295.8214 15.00040308103312
ICEYE-X33               
1 60548U 24149CJ  26188.70301073  .00003306  00000+0  26424-3 0  9991
2 60548  97.7335 267.7382 0001935  75.9542 284.1897 15.00923697103289
